{"type": "FeatureCollection", "features": [ {"type": "Feature", "properties": {"norad_id": 37906, "name": "FENGYUN 1C DEB", "group": "fengyun-1c-debris", "lat": 4.091494577404088, "lon": 35.613983171767515, "alt_km": 843.9735917325752, "timestamp": "2025-12-21T07:34:34.805073+00:00", "meta": {"OBJECT_NAME": "FENGYUN 1C DEB", "OBJECT_ID": "1999-025ENF", "EPOCH": "2025-12-17T09:43:38.923104", "MEAN_MOTION": 13.80796617, "ECCENTRICITY": 0.01626691, "INCLINATION": 99.5992, "RA_OF_ASC_NODE": 32.3357, "ARG_OF_PERICENTER": 16.2438, "MEAN_ANOMALY": 0.3742, "EPHEMERIS_TYPE": 0, "CLASSIFICATION_TYPE": "U", "NORAD_CAT_ID": 37906, "ELEMENT_SET_NO": 999, "REV_AT_EPOCH": 59520, "BSTAR": 0.00065282289, "MEAN_MOTION_DOT": 7.13e-06, "MEAN_MOTION_DDOT": 0}, "tle": {"line1": "1 37906U 99025ENF 25351.40531161  .00000713  00000+0  65282-3 0  9993", "line2": "2 37906  99.5992  32.3357 0162669  16.2438   0.3742 13.80796617595202"}}, "geometry": {"type": "Point", "coordinates": [35.613983171767515, 4.091494577404088]}}, {"type": "Feature", "properties": {"norad_id": 37907, "name": "FENGYUN 1C DEB", "group": "fengyun-1c-debris", "lat": -7.077525496799738, "lon": -72.5702570108297, "alt_km": 775.5461417677989, "timestamp": "2025-12-21T07:34:34.805082+00:00", "meta": {"OBJECT_NAME": "FENGYUN 1C DEB", "OBJECT_ID": "1999-025ENG", "EPOCH": "2025-12-18T02:47:52.898208", "MEAN_MOTION": 14.23621509, "ECCENTRICITY": 0.00633304, "INCLINATION": 99.0798, "RA_OF_ASC_NODE": 105.2668, "ARG_OF_PERICENTER": 171.0108, "MEAN_ANOMALY": 189.2219, "EPHEMERIS_TYPE": 0, "CLASSIFICATION_TYPE": "U", "NORAD_CAT_ID": 37907, "ELEMENT_SET_NO": 999, "REV_AT_EPOCH": 83349, "BSTAR": 0.0022047538, "MEAN_MOTION_DOT": 5.087e-05, "MEAN_MOTION_DDOT": 0}, "tle": {"line1": "1 37907U 99025ENG 25352.11658447  .00005087  00000+0  22048-2 0  9991", "line2": "2 37907  99.0798 105.2668 0063330 171.0108 189.2219 14.23621509833493"}}, "geometry": {"type": "Point", "coordinates": [-72.5702570108297, -7.077525496799738]}}, {"type": "Feature", "properties": {"norad_id": 37908, "name": "FENGYUN 1C DEB", "group": "fengyun-1c-debris", "lat": 3.1536553482869656, "lon": 27.238794499763657, "alt_km": 805.9706390092924, "timestamp": "2025-12-21T07:34:34.805091+00:00", "meta": {"OBJECT_NAME": "FENGYUN 1C DEB", "OBJECT_ID": "1999-025ENH", "EPOCH": "2025-12-20T21:31:55.616736", "MEAN_MOTION": 14.36620139, "ECCENTRICITY": 0.00743022, "INCLINATION": 99.1523, "RA_OF_ASC_NODE": 27.3032, "ARG_OF_PERICENTER": 134.3544, "MEAN_ANOMALY": 226.3761, "EPHEMERIS_TYPE": 0, "CLASSIFICATION_TYPE": "U", "NORAD_CAT_ID": 37908, "ELEMENT_SET_NO": 999, "REV_AT_EPOCH": 64178, "BSTAR": 0.00031883822, "MEAN_MOTION_DOT": 9.19e-06, "MEAN_MOTION_DDOT": 0}, "tle": {"line1": "1 37908U 99025ENH 25354.89717149  .00000919  00000+0  31884-3 0  9992", "line2": "2 37908  99.1523  27.3032 0074302 134.3544 226.3761 14.36620139641783"}}, "geometry": {"type": "Point", "coordinates": [27.238794499763657, 3.1536553482869656]}}, {"type": "Feature", "properties": {"norad_id": 37912, "name": "FENGYUN 1C DEB", "group": "fengyun-1c-debris", "lat": -62.15648210680189, "lon": -17.898135775504166, "alt_km": 871.8172442067234, "timestamp": "2025-12-21T07:34:34.805100+00:00", "meta": {"OBJECT_NAME": "FENGYUN 1C DEB", "OBJECT_ID": "1999-025ENM", "EPOCH": "2025-12-17T20:31:02.815680", "MEAN_MOTION": 14.1153782, "ECCENTRICITY": 0.00921589, "INCLINATION": 99.2285, "RA_OF_ASC_NODE": 320.6183, "ARG_OF_PERICENTER": 45.8497, "MEAN_ANOMALY": 315.0203, "EPHEMERIS_TYPE": 0, "CLASSIFICATION_TYPE": "U", "NORAD_CAT_ID": 37912, "ELEMENT_SET_NO": 999, "REV_AT_EPOCH": 77360, "BSTAR": 0.0021693094, "MEAN_MOTION_DOT": 4.053e-05, "MEAN_MOTION_DDOT": 0}, "tle": {"line1": "1 37912U 99025ENM 25351.85489370  .00004053  00000+0  21693-2 0  9991", "line2": "2 37912  99.2285 320.6183 0092158  45.8497 315.0203 14.11537820773603"}}, "geometry": {"type": "Point", "coordinates": [-17.898135775504166, -62.15648210680189]}}, {"type": "Feature", "properties": {"norad_id": 37918, "name": "FENGYUN 1C DEB", "group": "fengyun-1c-debris", "lat": -37.682299952223985, "lon": -47.78945277830013, "alt_km": 765.765847663095, "timestamp": "2025-12-21T07:34:34.805110+00:00", "meta": {"OBJECT_NAME": "FENGYUN 1C DEB", "OBJECT_ID": "1999-025ENT", "EPOCH": "2025-12-20T20:02:06.921312", "MEAN_MOTION": 14.34412668, "ECCENTRICITY": 0.00547908, "INCLINATION": 99.0289, "RA_OF_ASC_NODE": 304.6539, "ARG_OF_PERICENTER": 259.6508, "MEAN_ANOMALY": 99.8496, "EPHEMERIS_TYPE": 0, "CLASSIFICATION_TYPE": "U", "NORAD_CAT_ID": 37918, "ELEMENT_SET_NO": 999, "REV_AT_EPOCH": 3658, "BSTAR": 0.00044138632, "MEAN_MOTION_DOT": 1.215e-05, "MEAN_MOTION_DDOT": 0}, "tle": {"line1": "1 37918U 99025ENT 25354.83480233  .00001215  00000+0  44139-3 0  9995", "line2": "2 37918  99.0289 304.6539 0054790 259.6508  99.8496 14.34412668 36583"}}, "geometry": {"type": "Point", "coordinates": [-47.78945277830013, -37.682299952223985]}}, {"type": "Feature", "properties": {"norad_id": 37919, "name": "FENGYUN 1C DEB", "group": "fengyun-1c-debris", "lat": -76.15417408788751, "lon": 73.22995613137354, "alt_km": 810.9436990174354, "timestamp": "2025-12-21T07:34:34.805119+00:00", "meta": {"OBJECT_NAME": "FENGYUN 1C DEB", "OBJECT_ID": "1999-025ENU", "EPOCH": "2025-12-12T06:55:51.957984", "MEAN_MOTION": 14.2676163, "ECCENTRICITY": 0.00496798, "INCLINATION": 99.0576, "RA_OF_ASC_NODE": 284.2227, "ARG_OF_PERICENTER": 17.6806, "MEAN_ANOMALY": 342.6088, "EPHEMERIS_TYPE": 0, "CLASSIFICATION_TYPE": "U", "NORAD_CAT_ID": 37919, "ELEMENT_SET_NO": 999, "REV_AT_EPOCH": 64902, "BSTAR": 0.00082874062, "MEAN_MOTION_DOT": 1.986e-05, "MEAN_MOTION_DDOT": 0}, "tle": {"line1": "1 37919U 99025ENU 25346.28879581  .00001986  00000+0  82874-3 0  9997", "line2": "2 37919  99.0576 284.2227 0049679  17.6806 342.6088 14.26761630649025"}}, "geometry": {"type": "Point", "coordinates": [73.22995613137354, -76.15417408788751]}}, {"type": "Feature", "properties": {"norad_id": 37921, "name": "FENGYUN 1C DEB", "group": "fengyun-1c-debris", "lat": -60.90944916406343, "lon": 52.797308731261275, "alt_km": 962.7862495680138, "timestamp": "2025-12-21T07:34:34.805128+00:00", "meta": {"OBJECT_NAME": "FENGYUN 1C DEB", "OBJECT_ID": "1999-025ENW", "EPOCH": "2025-12-15T09:01:05.069568", "MEAN_MOTION": 13.95156429, "ECCENTRICITY": 0.00843191, "INCLINATION": 99.0218, "RA_OF_ASC_NODE": 30.3959, "ARG_OF_PERICENTER": 91.5684, "MEAN_ANOMALY": 269.5138, "EPHEMERIS_TYPE": 0, "CLASSIFICATION_TYPE": "U", "NORAD_CAT_ID": 37921, "ELEMENT_SET_NO": 999, "REV_AT_EPOCH": 63184, "BSTAR": 6.6280037e-05, "MEAN_MOTION_DOT": 4.9e-07, "MEAN_MOTION_DDOT": 0}, "tle": {"line1": "1 37921U 99025ENW 25349.37575312  .00000049  00000+0  66280-4 0  9991", "line2": "2 37921  99.0218  30.3959 0084319  91.5684 269.5138 13.95156429631841"}}, "geometry": {"type": "Point", "coordinates": [52.797308731261275, -60.90944916406343]}}, {"type": "Feature", "properties": {"norad_id": 37925, "name": "FENGYUN 1C DEB", "group": "fengyun-1c-debris", "lat": 0.7297280756618187, "lon": 45.712251169842766, "alt_km": 659.4286231738461, "timestamp": "2025-12-21T07:34:34.805137+00:00", "meta": {"OBJECT_NAME": "FENGYUN 1C DEB", "OBJECT_ID": "1999-025EPA", "EPOCH": "2025-12-17T21:39:42.022944", "MEAN_MOTION": 14.80410636, "ECCENTRICITY": 0.00562547, "INCLINATION": 99.0862, "RA_OF_ASC_NODE": 221.7351, "ARG_OF_PERICENTER": 326.9012, "MEAN_ANOMALY": 32.868, "EPHEMERIS_TYPE": 0, "CLASSIFICATION_TYPE": "U", "NORAD_CAT_ID": 37925, "ELEMENT_SET_NO": 999, "REV_AT_EPOCH": 65759, "BSTAR": 0.0012891872, "MEAN_MOTION_DOT": 0.00010061, "MEAN_MOTION_DDOT": 0}, "tle": {"line1": "1 37925U 99025EPA 25351.90256971  .00010061  00000+0  12892-2 0  9997", "line2": "2 37925  99.0862 221.7351 0056254 326.9012  32.8680 14.80410636657590"}}, "geometry": {"type": "Point", "coordinates": [45.712251169842766, 0.7297280756618187]}}, {"type": "Feature", "properties": {"norad_id": 37926, "name": "FENGYUN 1C DEB", "group": "fengyun-1c-debris", "lat": 79.9695713151416, "lon": -61.33631044269145, "alt_km": 811.3742996580531, "timestamp": "2025-12-21T07:34:34.805146+00:00", "meta": {"OBJECT_NAME": "FENGYUN 1C DEB", "OBJECT_ID": "1999-025EPB", "EPOCH": "2025-12-19T03:00:09.079776", "MEAN_MOTION": 14.24261265, "ECCENTRICITY": 0.00544315, "INCLINATION": 98.7239, "RA_OF_ASC_NODE": 56.2496, "ARG_OF_PERICENTER": 203.1744, "MEAN_ANOMALY": 186.8643, "EPHEMERIS_TYPE": 0, "CLASSIFICATION_TYPE": "U", "NORAD_CAT_ID": 37926, "ELEMENT_SET_NO": 999, "REV_AT_EPOCH": 74361, "BSTAR": 0.001177692, "MEAN_MOTION_DOT": 2.716e-05, "MEAN_MOTION_DDOT": 0}, "tle": {"line1": "1 37926U 99025EPB 25353.12510509  .00002716  00000+0  11777-2 0  9993", "line2": "2 37926  98.7239  56.2496 0054431 203.1744 186.8643 14.24261265743617"}}, "geometry": {"type": "Point", "coordinates": [-61.33631044269145, 79.9695713151416]}}, {"type": "Feature", "properties": {"norad_id": 37927, "name": "FENGYUN 1C DEB", "group": "fengyun-1c-debris", "lat": 80.61860550259182, "lon": 29.48839793855045, "alt_km": 652.3353458418533, "timestamp": "2025-12-21T07:34:34.805155+00:00", "meta": {"OBJECT_NAME": "FENGYUN 1C DEB", "OBJECT_ID": "1999-025EPC", "EPOCH": "2025-12-20T03:25:18.230304", "MEAN_MOTION": 14.72067181, "ECCENTRICITY": 0.00083592, "INCLINATION": 98.8071, "RA_OF_ASC_NODE": 138.4338, "ARG_OF_PERICENTER": 253.9424, "MEAN_ANOMALY": 106.086, "EPHEMERIS_TYPE": 0, "CLASSIFICATION_TYPE": "U", "NORAD_CAT_ID": 37927, "ELEMENT_SET_NO": 999, "REV_AT_EPOCH": 65225, "BSTAR": 0.0024443804, "MEAN_MOTION_DOT": 0.00015349, "MEAN_MOTION_DDOT": 0}, "tle": {"line1": "1 37927U 99025EPC 25354.14257211  .00015349  00000+0  24444-2 0  9996", "line2": "2 37927  98.8071 138.4338 0008359 253.9424 106.0860 14.72067181652255"}}, "geometry": {"type": "Point", "coordinates": [29.48839793855045, 80.61860550259182]}}]}